H1 CPF 01  gfz 2021 05 25 00  6451 tandemx   
H2 1003001  6202 36605    2021 05 25 00 59 42 2021 05 30 00 00 42   120 1 1  0 0 0
H9
10 0 59359  53262.000000  0      54381.055  -1270377.093   6759215.682
10 0 59359  53382.000000  0    -573673.922  -1919052.535   6580059.911
10 0 59359  53502.000000  0   -1202680.976  -2523238.057   6285261.541
10 0 59359  53622.000000  0   -1820789.118  -3072465.445   5879970.506
10 0 59359  53742.000000  0   -2416154.451  -3557423.266   5371274.624
10 0 59359  53862.000000  0   -2977168.806  -3970119.306   4768083.645
10 0 59359  53982.000000  0   -3492690.565  -4304017.764   4080978.555
10 0 59359  54102.000000  0   -3952269.586  -4554147.558   3322028.682
10 0 59359  54222.000000  0   -4346361.948  -4717180.425   2504581.096
10 0 59359  54342.000000  0   -4666531.462  -4791477.413   1643025.164
10 0 59359  54462.000000  0   -4905632.509  -4777100.808    752534.564
10 0 59359  54582.000000  0   -5057968.741  -4675791.132   -151206.675
10 0 59359  54702.000000  0   -5119424.050  -4490910.020  -1052288.903
10 0 59359  54822.000000  0   -5087561.684  -4227349.977  -1934866.747
10 0 59359  54942.000000  0   -4961688.227  -3891412.482  -2783446.630
10 0 59359  55062.000000  0   -4742881.416  -3490659.033  -3583163.920
10 0 59359  55182.000000  0   -4433982.989  -3033740.286  -4320044.894
10 0 59359  55302.000000  0   -4039556.963  -2530207.213  -4981249.405
10 0 59359  55422.000000  0   -3565814.434  -1990308.934  -5555289.203
10 0 59359  55542.000000  0   -3020508.037  -1424782.580  -6032218.988
10 0 59359  55662.000000  0   -2412798.814   -844639.316  -6403798.284
10 0 59359  55782.000000  0   -1753097.508   -260951.265  -6663622.471
10 0 59359  55902.000000  0   -1052884.253    315356.311  -6807220.904
10 0 59359  56022.000000  0    -324511.708    873703.896  -6832124.683
10 0 59359  56142.000000  0     419008.008   1404046.999  -6737904.397
10 0 59359  56262.000000  0    1164228.868   1897051.406  -6526177.801
10 0 59359  56382.000000  0    1897509.294   2344254.820  -6200586.614
10 0 59359  56502.000000  0    2605256.966   2738210.825  -5766740.491
10 0 59359  56622.000000  0    3274177.499   3072613.055  -5232129.111
10 0 59359  56742.000000  0    3891522.176   3342397.923  -4606004.844
10 0 59359  56862.000000  0    4445333.500   3543825.268  -3899234.349
10 0 59359  56982.000000  0    4924682.096   3674533.248  -3124119.249
10 0 59359  57102.000000  0    5319888.369   3733566.264  -2294188.246
10 0 59359  57222.000000  0    5622725.080   3721375.997  -1423964.543
10 0 59359  57342.000000  0    5826595.488   3639793.164   -528710.702
10 0 59359  57462.000000  0    5926681.512   3491970.928    375842.640
10 0 59359  57582.000000  0    5920058.736   3282301.028   1273779.817
10 0 59359  57702.000000  0    5805773.206   3016303.921   2149288.824
10 0 59359  57822.000000  0    5584878.445   2700496.758   2986948.279
10 0 59359  57942.000000  0    5260432.025   2342241.722   3772007.900
10 0 59359  58062.000000  0    4837450.019   1949578.266   4490654.540
10 0 59359  58182.000000  0    4322822.633   1531044.628   5130256.572
10 0 59359  58302.000000  0    3725196.429   1095493.280   5679586.564
10 0 59359  58422.000000  0    3054818.757    651903.799   6129016.951
10 0 59359  58542.000000  0    2323353.653    209198.120   6470681.332
10 0 59359  58662.000000  0    1543675.025   -223936.953   6698605.721
10 0 59359  58782.000000  0     729637.361   -639219.135   6808808.992
10 0 59359  58902.000000  0    -104173.069  -1028928.549   6799368.117
10 0 59359  59022.000000  0    -942699.708  -1386050.526   6670448.782
10 0 59359  59142.000000  0   -1770686.906  -1704402.079   6424301.636
10 0 59359  59262.000000  0   -2572955.527  -1978738.419   6065224.364
10 0 59359  59382.000000  0   -3334679.996  -2204839.342   5599493.616
10 0 59359  59502.000000  0   -4041666.822  -2379576.117   5035263.054
10 0 59359  59622.000000  0   -4680624.467  -2500955.291   4382425.044
10 0 59359  59742.000000  0   -5239419.610  -2568138.115   3652440.834
10 0 59359  59862.000000  0   -5707314.552  -2581435.123   2858142.033
10 0 59359  59982.000000  0   -6075181.907  -2542277.046   2013506.245
10 0 59359  60102.000000  0   -6335691.878  -2453163.136   1133408.462
10 0 59359  60222.000000  0   -6483464.365  -2317585.332    233351.541
10 0 59359  60342.000000  0   -6515182.251  -2139931.101   -670814.365
10 0 59359  60462.000000  0   -6429664.250  -1925367.618  -1563180.796
10 0 59359  60582.000000  0   -6227892.664  -1679710.455  -2428069.816
10 0 59359  60702.000000  0   -5912997.886  -1409280.458  -3250315.779
10 0 59359  60822.000000  0   -5490200.589  -1120752.485  -4015534.749
10 0 59359  60942.000000  0   -4966713.810   -820999.889  -4710376.287
10 0 59359  61062.000000  0   -4351607.758   -516938.183  -5322753.026
10 0 59359  61182.000000  0   -3655640.530   -215372.357  -5842043.876
10 0 59359  61302.000000  0   -2891060.151     77149.236  -6259267.622
10 0 59359  61422.000000  0   -2071383.459    354471.017  -6567225.972
10 0 59359  61542.000000  0   -1211155.221    610953.415  -6760616.478
10 0 59359  61662.000000  0    -325692.005    841582.450  -6836113.774
10 0 59359  61782.000000  0     569184.613   1042064.363  -6792419.206
10 0 59359  61902.000000  0    1457422.519   1208902.304  -6630282.299
10 0 59359  62022.000000  0    2323021.388   1339456.482  -6352491.033
10 0 59359  62142.000000  0    3150315.598   1431985.784  -5963828.797
10 0 59359  62262.000000  0    3924253.810   1485669.689  -5470999.293
10 0 59359  62382.000000  0    4630671.133   1500610.803  -4882522.332
10 0 59359  62502.000000  0    5256552.251   1477818.212  -4208598.498
10 0 59359  62622.000000  0    5790277.904   1419171.081  -3460942.091
10 0 59359  62742.000000  0    6221849.658   1327362.975  -2652586.024
10 0 59359  62862.000000  0    6543089.355   1205828.046  -1797660.411
10 0 59359  62982.000000  0    6747806.817   1058650.506   -911146.201
10 0 59359  63102.000000  0    6831929.937    890458.498     -8609.469
10 0 59359  63222.000000  0    6793592.878    706306.010    894077.848
10 0 59359  63342.000000  0    6633182.128    511545.431   1781023.901
10 0 59359  63462.000000  0    6353337.527    311692.665   2636606.616
10 0 59359  63582.000000  0    5958905.647    112289.811   3445757.494
10 0 59359  63702.000000  0    5456849.730    -81232.078   4194233.963
10 0 59359  63822.000000  0    4856117.859   -263684.521   4868873.127
10 0 59359  63942.000000  0    4167474.452   -430246.948   5457825.677
10 0 59359  64062.000000  0    3403295.732   -576581.612   5950761.691
10 0 59359  64182.000000  0    2577338.930   -698934.455   6339047.074
10 0 59359  64302.000000  0    1704488.446   -794221.721   6615889.057
10 0 59359  64422.000000  0     800483.512   -860100.108   6776450.366
10 0 59359  64542.000000  0    -118368.932   -895019.196   6817928.292
10 0 59359  64662.000000  0   -1035488.489   -898255.201   6739599.279
10 0 59359  64782.000000  0   -1934319.288   -869925.749   6542830.146
10 0 59359  64902.000000  0   -2798627.230   -810984.775   6231055.333
10 0 59359  65022.000000  0   -3612792.590   -723198.063   5809721.963
10 0 59359  65142.000000  0   -4362095.487   -609100.090   5286201.520
10 0 59359  65262.000000  0   -5032988.210   -471933.052   4669667.117
10 0 59359  65382.000000  0   -5613347.900   -315568.542   3970937.234
10 0 59359  65502.000000  0   -6092704.319   -144413.659   3202288.685
10 0 59359  65622.000000  0   -6462438.108     36696.688   2377242.820
10 0 59359  65742.000000  0   -6715946.495    222619.388   1510326.288
10 0 59359  65862.000000  0   -6848769.901    408030.761    616810.005
10 0 59359  65982.000000  0   -6858676.031    587559.379   -287567.654
10 0 59359  66102.000000  0   -6745698.543    755921.150  -1186887.455
10 0 59359  66222.000000  0   -6512128.996    908052.571  -2065338.139
10 0 59359  66342.000000  0   -6162465.596   1039238.797  -2907500.661
10 0 59359  66462.000000  0   -5703318.379   1145234.363  -3698626.245
10 0 59359  66582.000000  0   -5143270.373   1222371.879  -4424896.825
10 0 59359  66702.000000  0   -4492704.109   1267656.974  -5073663.698
10 0 59359  66822.000000  0   -3763596.898   1278847.322  -5633661.345
10 0 59359  66942.000000  0   -2969291.124   1254514.321  -6095193.389
10 0 59359  67062.000000  0   -2124244.315   1194085.729  -6450289.461
10 0 59359  67182.000000  0   -1243763.539   1097870.541  -6692831.499
10 0 59359  67302.000000  0    -343729.327    967064.490  -6818647.377
10 0 59359  67422.000000  0     559684.567    803736.561  -6825573.728
10 0 59359  67542.000000  0    1450293.562    610797.085  -6713490.891
10 0 59359  67662.000000  0    2312186.742    391946.920  -6484325.889
10 0 59359  67782.000000  0    3130004.977    151609.140  -6142022.522
10 0 59359  67902.000000  0    3889211.094   -105155.959  -5692480.307
10 0 59359  68022.000000  0    4576346.050   -372752.199  -5143462.273
10 0 59359  68142.000000  0    5179270.523   -645162.568  -4504473.637
10 0 59359  68262.000000  0    5687386.868   -916077.154  -3786607.924
10 0 59359  68382.000000  0    6091834.861  -1179031.052  -3002363.502
10 0 59359  68502.000000  0    6385657.887  -1427549.932  -2165432.572
10 0 59359  68622.000000  0    6563935.324  -1655299.778  -1290464.982
10 0 59359  68742.000000  0    6623876.313  -1856236.923   -392810.685
10 0 59359  68862.000000  0    6564872.493  -2024754.753    511753.610
10 0 59359  68982.000000  0    6388507.507  -2155823.572   1407309.257
10 0 59359  69102.000000  0    6098521.548  -2245119.194   2278084.688
10 0 59359  69222.000000  0    5700732.489  -2289137.829   3108742.308
10 0 59359  69342.000000  0    5202914.840  -2285292.779   3884656.808
10 0 59359  69462.000000  0    4614639.920  -2231991.666   4592177.087
10 0 59359  69582.000000  0    3947084.626  -2128691.793   5218868.061
10 0 59359  69702.000000  0    3212810.834  -1975933.707   5753730.352
99
